CZ-2D R/B               
1 28738U 05024B   26181.60179354  .00062610  00000+0  49777-3 0  9993
2 28738  97.3472 201.7131 0000745 357.6269   2.4990 15.71047423157440
ALOS (DAICHI)           
1 28931U 06002A   26181.43129114  .00001058  00000+0  18444-3 0  9991
2 28931  98.1330 136.9579 0000959  60.7063 299.4238 14.70076296 90046
H-2A R/B                
1 28932U 06002B   26181.96180790  .00008831  00000+0  42120-3 0  9991
2 28932  98.2579 339.0391 0049984 214.5565 145.2415 15.18248176111611
RESURS-DK 1             
1 29228U 06021A   26181.78460793  .00002178  00000+0  12821-3 0  9998
2 29228  69.9341 304.3547 0006694 285.3513  74.6913 15.13271968104632
CZ-4B R/B               
1 29507U 06046C   26181.70166597  .00003717  00000+0  18464-3 0  9991
2 29507  97.5440 226.2670 0031309 233.4235 126.4117 15.17879881 77187
CZ-2C R/B               
1 31114U 07010B   26181.30422177  .00000072  00000+0  52389-4 0  9991
2 31114  98.4111 289.0143 0058274 327.7830  31.9792 14.20278887995707
COSMO-SKYMED 1          
1 31598U 07023A   26181.96998770  .00002126  00000+0  18912-3 0  9995
2 31598  97.8855  13.9422 0001499  84.2100 275.9292 14.97170900 31850
COSMOS 2428             
1 31792U 07029A   26181.80731073  .00000050  00000+0  52333-4 0  9991
2 31792  70.9377 325.8792 0007127 108.9662 251.2232 14.12928500980075
SL-16 R/B               
1 31793U 07029B   26181.47361403 -.00000257  00000+0 -10813-3 0  9998
2 31793  70.9768 295.2989 0002429 262.3056 168.6226 14.14853598981329
KORONAS-FOTON           
1 33504U 09003A   26181.93100357  .00011706  00000+0  23844-3 0  9991
2 33504  82.4290 157.9190 0012610 105.2165 255.0479 15.46004786963229
CZ-2C R/B               
1 37731U 11030B   26181.81122881  .00001268  00000+0  16494-3 0  9998
2 37731  97.8661 136.9520 0051872 343.8409  34.1518 14.81504354806843
H-2A R/B                
1 38341U 12025E   26181.87071980  .00002959  00000+0  26677-3 0  9992
2 38341  98.4825 158.1445 0042603 303.2122  56.5015 14.95781263765133
SHIJIAN-16 (SJ-16)      
1 39358U 13057A   26181.91287337  .00001518  00000+0  14991-3 0  9993
2 39358  74.9731 330.6850 0016423 198.7606 161.2979 14.92631322688391
SL-4 R/B                
1 39679U 14021B   26181.15439646  .00008299  00000+0  17316-3 0  9996
2 39679  51.6043 147.2323 0090581 153.2580 207.3118 15.42202414673614
ALOS-2                  
1 39766U 14029A   26181.86863941  .00000732  00000+0  10488-3 0  9995
2 39766  97.9232 278.8362 0001598  87.5110 272.6284 14.79474729653601
YAOGAN-29               
1 41038U 15069A   26182.00872028 -.00000328  00000+0 -33683-4 0  9994
2 41038  98.0021 210.6626 0001836  32.4778 327.6548 14.83094059572675
ASTRO-H (HITOMI)        
1 41337U 16012A   26181.77875766  .00002818  00000+0  16084-3 0  9999
2 41337  31.0005 346.4066 0009634  29.3738 330.7441 15.10572596569342
HXMT (HUIYAN)           
1 42758U 17034A   26181.94744567  .00004329  00000+0  21430-3 0  9995
2 42758  43.0145 106.4142 0032604 233.9862 125.7963 15.18575174499752
SAOCOM 1A               
1 43641U 18076A   26181.97571183  .00000143  00000+0  24578-4 0  9996
2 43641  97.8878   8.5236 0001569  77.9341 282.2048 14.82158325418146
H-2A R/B                
1 43682U 18084L   26181.85494387  .00022961  00000+0  47320-3 0  9998
2 43682  98.8557  63.7357 0021884 353.1636   6.9307 15.45679839423234
SAOCOM 1B               
1 46265U 20059A   26181.93940061  .00000710  00000+0  95794-4 0  9994
2 46265  97.8880   7.5834 0001591  81.6066 278.5327 14.82149524315525
CSS (TIANHE)            
1 48274U 21035A   26181.85942709  .00021186  00000+0  24432-3 0  9993
2 48274  41.4677 238.7619 0008720 188.7770 171.2918 15.61388759295331
COSMOS 2550             
1 48865U 21056A   26181.97848520  .00005574  00000+0  17496-3 0  9996
2 48865  67.1434  58.1885 0008363 268.9610  91.0586 15.33859328280832
CZ-2C R/B               
1 52794U 22058K   26181.92940340  .00042061  00000+0  44924-3 0  9991
2 52794  50.1859  91.9633 0031547 324.0587  35.8265 15.62816234227791
CZ-2C R/B               
1 54039U 22132E   26181.00889445  .00070629  00000+0  51238-3 0  9992
2 54039  97.2890 188.6182 0013156  42.7723 317.4562 15.73080866207969
GSLV R/B                
1 54149U 22138AN  26181.81848992  .00002462  00000+0  20862-3 0  9990
2 54149  87.3816 128.4071 0024152  98.9323 261.4644 14.97321086200852
XRISM                   
1 57800U 23137A   26181.91709529  .00005011  00000+0  27455-3 0  9998
2 57800  31.0022 270.6602 0007715 102.3924 257.7578 15.12582544154945
ACS3                    
1 59588U 24077B   26181.33678761  .00010972  00000+0  78637-2 0  9995
2 59588  97.1700  97.2009 0104420  52.7337 308.3297 13.94555943109871
CZ-8A R/B               
1 66004U 25231K   26181.88713357 -.00000011  00000+0  54393-4 0  9999
2 66004  50.0054 341.0307 0116483 272.2400  86.5182 14.30158530 36908
SZ-21 MODULE            
1 66515U 25246C   26181.51505126  .00041495  00000+0  24277-3 0  9992
2 66515  41.4700 224.2498 0004988 103.9916 256.1484 15.77532205 35847

ISS (ZARYA)             
1 25544U 98067A   26181.86323116  .00005885  00000+0  11296-3 0  9995
2 25544  51.6310 232.3923 0004309 252.2804 107.7714 15.49494077573878
POISK                   
1 36086U 09060A   26181.86323116  .00005885  00000+0  11296-3 0  9993
2 36086  51.6310 232.3923 0004309 252.2804 107.7714 15.49494077571633
CSS (TIANHE)            
1 48274U 21035A   26181.85942709  .00021186  00000+0  24432-3 0  9993
2 48274  41.4677 238.7619 0008720 188.7770 171.2918 15.61388759295331
ISS (NAUKA)             
1 49044U 21066A   26181.86323116  .00005885  00000+0  11296-3 0  9991
2 49044  51.6310 232.3923 0004309 252.2804 107.7714 15.49494077571686
FREGAT DEB              
1 49271U 11037PF  26181.72808629  .00012018  00000+0  20672-1 0  9994
2 49271  51.6282 321.2139 0898096 311.8980  40.8558 12.42324857226738
CSS (WENTIAN)           
1 53239U 22085A   26181.85942709  .00021186  00000+0  24432-3 0  9996
2 53239  41.4677 238.7619 0008720 188.7770 171.2918 15.61388759288239
CSS (MENGTIAN)          
1 54216U 22143A   26181.85942709  .00021186  00000+0  24432-3 0  9997
2 54216  41.4677 238.7619 0008720 188.7770 171.2918 15.61388759295323
HRC MONOBLOCK CAMERA    
1 66052U 98067XR  26181.33602962  .00068301  00000+0  43236-3 0  9996
2 66052  51.6195 211.5365 0002775   1.6718 358.4291 15.75915911 40072
SZ-21 MODULE            
1 66515U 25246C   26181.51505126  .00041495  00000+0  24277-3 0  9992
2 66515  41.4700 224.2498 0004988 103.9916 256.1484 15.77532205 35847
SOYUZ-MS 28             
1 66664U 25275A   26181.86323116  .00005885  00000+0  11296-3 0  9994
2 66664  51.6310 232.3923 0004309 252.2804 107.7714 15.49494077571784
DUPLEX                  
1 66906U 98067XS  26181.73426325  .00035071  00000+0  37472-3 0  9998
2 66906  51.6243 221.0122 0002679 280.5781  79.4912 15.63556114 32773
ISS OBJECT XY           
1 66912U 98067XY  26180.34749916  .03033787  11989-4  10774-2 0  9998
2 66912  51.6040 208.4573 0006307 344.7501  15.3327 16.24233034 32803
KNACKSAT-2              
1 67683U 98067XZ  26181.35012679  .00038944  00000+0  45592-3 0  9996
2 67683  51.6260 228.2118 0008493 273.6004  86.4018 15.61112165 22338
CORAL                   
1 67684U 98067YA  26181.35937577  .00233575  00000+0  10883-2 0  9991
2 67684  51.6173 219.9456 0009199 328.1176  31.9268 15.82071698 22446
GXIBA-1                 
1 67685U 98067YB  26181.33787848  .00045168  00000+0  49094-3 0  9990
2 67685  51.6249 227.3728 0009323 271.9921  88.0006 15.62953197 22341
UITMSAT-2               
1 67686U 98067YC  26181.51134027  .00073571  00000+0  68195-3 0  9998
2 67686  51.6236 224.7769 0004620 280.0341  80.0134 15.66800430 22390
LEOPARD                 
1 67687U 98067YD  26181.75301009  .00046010  00000+0  51358-3 0  9992
2 67687  51.6270 225.6624 0005042 259.3248 100.7179 15.62297353 22325
HMU-SAT2                
1 67688U 98067YE  26181.38757305  .00056764  00000+0  56896-3 0  9995
2 67688  51.6252 226.2127 0004741 269.5986  90.4466 15.64952500 22281
CREW DRAGON 12          
1 67796U 26031A   26181.86323116  .00005885  00000+0  11296-3 0  9992
2 67796  51.6310 232.3923 0004309 252.2804 107.7714 15.49494077626300
PROGRESS-MS 33          
1 68319U 26058A   26181.86323116  .00005885  00000+0  11296-3 0  9993
2 68319  51.6310 232.3923 0004309 252.2804 107.7714 15.49494077571839
CYGNUS NG-24            
1 68689U 26079A   26181.86323116  .00005885  00000+0  11296-3 0  9996
2 68689  51.6310 232.3923 0004309 252.2804 107.7714 15.49494077679490
PROGRESS-MS 34          
1 68837U 26093A   26181.86323116  .00005885  00000+0  11296-3 0  9997
2 68837  51.6310 232.3923 0004309 252.2804 107.7714 15.49494077697226
TIANZHOU-10             
1 69049U 26102A   26181.85942706  .00021053  00000+0  24281-3 0  9998
2 69049  41.4677 238.7620 0008722 188.8003 171.2684 15.61388671295331
SHENZHOU-23 (SZ-23)     
1 69180U 26113A   26181.85942709  .00021186  00000+0  24432-3 0  9994
2 69180  41.4677 238.7619 0008720 188.7770 171.2918 15.61388759295341
